IRIDIUM 63              
1 25286U 98021B   25282.06317932  .00000646  00000+0  21282-3 0  9996
2 25286  86.4013  34.3322 0001929  92.8630 267.2788 14.36652439440194
IRIDIUM 69              
1 25319U 98026A   25282.07309801  .00000866  00000+0  26303-3 0  9998
2 25319  86.3982  47.2579 0003346  47.2409 312.9072 14.41098609439466
IRIDIUM 71              
1 25320U 98026B   25282.06557178  .00000477  00000+0  14148-3 0  9993
2 25320  86.3991  41.9382 0004192  81.5112 278.6562 14.41254920439993
IRIDIUM 73              
1 25344U 98032C   25282.20244571  .00000781  00000+0  18886-3 0  9993
2 25344  86.4467 358.4032 0001948  76.2268 283.9154 14.51869610447102
IRIDIUM 82              
1 25467U 98051A   25282.12016095  .00063031  00000+0  14740-2 0  9990
2 25467  86.3643  53.4357 0073148 222.2482 137.3124 15.39088954441437
